     2.100          NAVIGATION                              RINEX VERSION / TYPE
fic2rin                                 06/18/2011 00:12:01 PGM / RUN BY / DATE
                                                            END OF HEADER
17 11  6 17  2  0  0.0  .183659140021D-03 -.454747350886D-12  .000000000000D+00
     .410000000000D+02 -.120625000000D+02  .455054669139D-08 -.254467496397D+01
    -.525265932083D-06  .636804825626D-02  .995583832264D-05  .515377059937D+04
     .439200000000D+06  .158324837685D-06 -.226300685870D+01 -.139698386192D-06
     .961279969123D+00  .185968750000D+03 -.239040360794D+01 -.777318092704D-08
     .608596779070D-09  .100000000000D+01  .164000000000D+04  .000000000000D+00
     .240000000000D+01  .000000000000D+00 -.107102096081D-07  .410000000000D+02
     .432006000000D+06  .400000000000D+01
18 11  6 17  2  0  0.0  .142587348819D-03  .193267624127D-11  .000000000000D+00
     .900000000000D+01  .140625000000D+02  .495127766916D-08 -.110018749763D+01
     .683590769768D-06  .125039109262D-01  .990182161331D-05  .515360622787D+04
     .439200000000D+06  .283122062683D-06 -.182718337901D+00  .279396772385D-06
     .933152324717D+00  .175375000000D+03 -.224539455827D+01 -.813605318499D-08
    -.703957894100D-09  .100000000000D+01  .164000000000D+04  .000000000000D+00
     .240000000000D+01  .000000000000D+00 -.107102096081D-07  .900000000000D+01
     .432006000000D+06  .400000000000D+01
19 11  6 17  2  0  0.0 -.152168795466D-03 -.409272615798D-11  .000000000000D+00
     .310000000000D+02  .200000000000D+01  .464697927963D-08  .311440079838D+01
     .149011611938D-06  .742089713458D-02  .104010105133D-04  .515366728783D+04
     .439200000000D+06 -.124797224998D-06 -.220903949769D+01  .353902578354D-07
     .958730631025D+00  .177625000000D+03  .217282497088D-01 -.773532220722D-08
     .677171064036D-09  .100000000000D+01  .164000000000D+04  .000000000000D+00
     .240000000000D+01  .000000000000D+00 -.144354999065D-07  .310000000000D+02
     .432006000000D+06  .400000000000D+01
20 11  6 17  2  0  0.0  .499626621604D-04  .341060513165D-12  .000000000000D+00
     .910000000000D+02  .107500000000D+02  .503913847177D-08 -.730164076253D+00
     .499188899994D-06  .451848516241D-02  .101625919342D-04  .515364593506D+04
     .439200000000D+06 -.242143869400D-07 -.236603794515D+00  .353902578354D-07
     .933295203537D+00  .167531250000D+03  .128778362865D+01 -.820141305034D-08
    -.733959143773D-09  .100000000000D+01  .164000000000D+04  .000000000000D+00
     .240000000000D+01  .000000000000D+00 -.745058059692D-08  .910000000000D+02
     .432006000000D+06  .400000000000D+01
21 11  6 17  2  0  0.0 -.151693355292D-03 -.261479726760D-11  .000000000000D+00
     .830000000000D+02  .121875000000D+01  .583524306130D-08  .829693622927D-01
     .203028321266D-06  .179456529440D-01  .436417758465D-05  .515373683357D+04
     .439200000000D+06 -.186264514923D-07 -.123665690052D+01  .217929482460D-06
     .931203646152D+00  .277187500000D+03 -.235451208174D+01 -.891965725381D-08
    -.210365905441D-09  .100000000000D+01  .164000000000D+04  .000000000000D+00
     .240000000000D+01  .000000000000D+00 -.116415321827D-07  .830000000000D+02
     .432006000000D+06  .400000000000D+01
22 11  6 17  2  0  0.0  .147352460772D-03 -.341060513165D-12  .000000000000D+00
     .300000000000D+02  .192500000000D+02  .491163316066D-08 -.190856652263D+01
     .866129994392D-06  .575858424418D-02  .103805214167D-04  .515370329285D+04
     .439200000000D+06  .173225998878D-06 -.178629914893D+00 -.409781932831D-07
     .930851881649D+00  .164968750000D+03 -.198197679199D+01 -.794140221985D-08
    -.666456332010D-09  .100000000000D+01  .164000000000D+04  .000000000000D+00
     .240000000000D+01  .000000000000D+00 -.167638063431D-07  .300000000000D+02
     .432006000000D+06  .400000000000D+01
23 11  6 17  2  0  0.0  .298646744341D-03 -.272848410532D-11  .000000000000D+00
     .980000000000D+02  .163875000000D+03  .415660171057D-08  .267222129951D+01
     .841170549393D-05  .733294687234D-02  .791624188423D-05  .515377141380D+04
     .439200000000D+06 -.102445483208D-06  .860017743740D+00  .149011611938D-07
     .964324003211D+00  .227812500000D+03 -.312725963032D+01 -.789461455667D-08
     .212151694112D-09  .100000000000D+01  .164000000000D+04  .000000000000D+00
     .240000000000D+01  .000000000000D+00 -.200234353542D-07  .980000000000D+02
     .432006000000D+06  .400000000000D+01
24 11  6 17  2  0  0.0  .399128999561D-03  .306954461848D-11  .000000000000D+00
     .450000000000D+02 -.353125000000D+01  .536629495630D-08  .192386129019D+01
     .186264514923D-07  .626252719667D-02  .481121242046D-05  .515369306946D+04
     .439200000000D+06  .838190317154D-07 -.119154988426D+01  .113621354103D-06
     .947810241610D+00  .277750000000D+03 -.269052840411D+00 -.833141846559D-08
    -.252867675811D-09  .100000000000D+01  .164000000000D+04  .000000000000D+00
     .240000000000D+01  .000000000000D+00 -.139698386192D-08  .450000000000D+02
     .432006000000D+06  .400000000000D+01
25 11  6 17  2  0  0.0  .432180240750D-05  .204636307899D-11  .000000000000D+00
     .114000000000D+03 -.134500000000D+03  .434339520556D-08 -.768286091708D+00
    -.694952905178D-05  .889335875399D-03  .792555510998D-05  .515364645767D+04
     .439200000000D+06 -.558793544769D-08  .293034939247D+01  .167638063431D-07
     .964639823818D+00  .230843750000D+03  .897768239445D+00 -.794783105907D-08
    -.914323799542D-10  .100000000000D+01  .164000000000D+04  .000000000000D+00
     .240000000000D+01  .000000000000D+00  .512227416039D-08  .114000000000D+03
     .432006000000D+06  .400000000000D+01
26 11  6 17  2  0  0.0 -.627576373518D-04 -.114823706099D-10  .000000000000D+00
     .860000000000D+02  .133250000000D+03  .358336354719D-08  .235628522330D+01
     .668503344059D-05  .204452959588D-01  .731833279133D-05  .515365773201D+04
     .439200000000D+06  .173225998878D-06  .925386680104D+00 -.303611159325D-06
     .987213451460D+00  .247968750000D+03  .115329597943D+01 -.742780939808D-08
     .294655130712D-09  .100000000000D+01  .164000000000D+04  .000000000000D+00
     .240000000000D+01  .000000000000D+00 -.605359673500D-08  .860000000000D+02
     .432006000000D+06  .400000000000D+01
27 11  6 17  2  0  0.0  .275724567473D-03  .375166564481D-11  .000000000000D+00
     .320000000000D+02  .656250000000D+01  .418553148704D-08 -.294941265017D+01
     .286847352982D-06  .215673745843D-01 -.724568963051D-06  .515366542053D+04
     .439200000000D+06  .229105353355D-06  .185102808643D+01  .305473804474D-06
     .980855650449D+00  .397375000000D+03 -.124133558903D+01 -.794747390133D-08
     .178221709364D-09  .100000000000D+01  .164000000000D+04  .000000000000D+00
     .240000000000D+01  .000000000000D+00 -.419095158577D-08  .320000000000D+02
     .432006000000D+06  .400000000000D+01
28 11  6 17  2  0  0.0  .453279353678D-04  .272848410532D-11  .000000000000D+00
     .680000000000D+02 -.144281250000D+03  .395587906396D-08 -.184631297126D+01
    -.729970633984D-05  .170035286574D-01  .811181962490D-05  .515370745850D+04
     .439200000000D+06  .344589352608D-06  .298545219442D+01  .912696123123D-07
     .975167778144D+00  .223437500000D+03 -.188780217063D+01 -.757781564644D-08
     .214294640518D-11  .100000000000D+01  .164000000000D+04  .000000000000D+00
     .340000000000D+01  .000000000000D+00 -.102445483208D-07  .680000000000D+02
     .432006000000D+06  .400000000000D+01
29 11  6 17  2  0  0.0  .215799082071D-03  .295585778076D-11  .000000000000D+00
     .450000000000D+02  .843750000000D+00  .464519349095D-08  .304029707806D+00
     .745058059692D-07  .257813057397D-02  .100228935480D-04  .515377894402D+04
     .439200000000D+06 -.372529029846D-07 -.225461545966D+01 -.316649675369D-07
     .961717909743D+00  .190250000000D+03 -.119006375845D+01 -.791818696713D-08
     .594667627436D-09  .100000000000D+01  .164000000000D+04  .000000000000D+00
     .240000000000D+01  .000000000000D+00 -.931322574615D-08  .450000000000D+02
     .432006000000D+06  .400000000000D+01
30 11  6 17  2  0  0.0  .123442150652D-04  .466116034659D-11  .000000000000D+00
     .620000000000D+02 -.157531250000D+03  .427589239380D-08 -.270646107563D+01
    -.823102891445D-05  .128157733707D-01  .768899917603D-05  .515369423103D+04
     .439200000000D+06  .180676579475D-06  .290103378983D+01  .115483999252D-06
     .961237873656D+00  .222906250000D+03  .153168198329D+01 -.780675375406D-08
    -.528593446610D-10  .100000000000D+01  .164000000000D+04  .000000000000D+00
     .965000000000D+01  .630000000000D+02 -.838190317154D-08  .620000000000D+02
     .432006000000D+06  .400000000000D+01
31 11  6 17  2  0  0.0  .967197120190D-04  .591171556152D-11  .000000000000D+00
     .770000000000D+02 -.139687500000D+02  .435125267571D-08  .954450292183D+00
    -.674277544022D-06  .760421564337D-02 -.260770320892D-07  .515367671394D+04
     .439200000000D+06  .447034835815D-07  .190668022728D+01 -.247731804848D-06
     .979546773255D+00  .386656250000D+03 -.952659076269D+00 -.839177812267D-08
     .112504686272D-09  .100000000000D+01  .164000000000D+04  .000000000000D+00
     .240000000000D+01  .000000000000D+00 -.130385160446D-07  .770000000000D+02
     .432006000000D+06  .400000000000D+01
32 11  6 17  2  0  0.0 -.274622812867D-03 -.716227077646D-11  .000000000000D+00
     .320000000000D+02  .296875000000D+02  .435125267571D-08  .165317378219D+01
     .152736902237D-05  .121735919965D-01  .107269734144D-04  .515365681839D+04
     .439200000000D+06  .227242708206D-06 -.111436686037D+00  .113621354103D-06
     .955110025812D+00  .165281250000D+03 -.776690401004D+00 -.765103298195D-08
    -.746816822204D-09  .100000000000D+01  .164000000000D+04  .000000000000D+00
     .240000000000D+01  .000000000000D+00 -.279396772385D-08  .320000000000D+02
     .432006000000D+06  .400000000000D+01
